{
  "norad_id": 56418,
  "name": "STARLINK-5356",
  "history": [
    {
      "epoch": "2026-03-28T15:30:16.280064Z",
      "apogee_km": 559.8370636265036,
      "perigee_km": 558.2985303466276,
      "latitude_deg": 2.4268476580462267e-05,
      "longitude_deg": 10.041208348765279,
      "height_km": 558.7866897444103,
      "semi_major_axis_km": 6937.204796986565,
      "eccentricity": 0.00011089,
      "inclination_deg": 43.0042,
      "raan_deg": 68.6725,
      "arg_perigee_deg": 274.5116,
      "mean_anomaly_deg": 85.56,
      "mean_motion_rev_day": 15.02539813
    },
    {
      "epoch": "2026-03-29T05:51:49.151232Z",
      "apogee_km": 559.8325971899994,
      "perigee_km": 558.2937874433401,
      "latitude_deg": 3.165748739440682e-05,
      "longitude_deg": 150.81334446330146,
      "height_km": 558.7891465974084,
      "semi_major_axis_km": 6937.200192316669,
      "eccentricity": 0.00011091,
      "inclination_deg": 43.0042,
      "raan_deg": 65.4213,
      "arg_perigee_deg": 273.9834,
      "mean_anomaly_deg": 86.0882,
      "mean_motion_rev_day": 15.02541309
    },
    {
      "epoch": "2026-03-30T07:23:28.215744Z",
      "apogee_km": 559.8282848675663,
      "perigee_km": 558.3298461974118,
      "latitude_deg": 2.937714286431181e-05,
      "longitude_deg": 121.07349606329612,
      "height_km": 558.8595333436873,
      "semi_major_axis_km": 6937.216065532489,
      "eccentricity": 0.000108,
      "inclination_deg": 43.004,
      "raan_deg": 59.6426,
      "arg_perigee_deg": 269.9146,
      "mean_anomaly_deg": 90.1573,
      "mean_motion_rev_day": 15.02536152
    },
    {
      "epoch": "2026-03-30T15:22:07.047840Z",
      "apogee_km": 559.8688718034509,
      "perigee_km": 558.3171521943668,
      "latitude_deg": -1.1795212025099664e-05,
      "longitude_deg": -0.7222702252315648,
      "height_km": 558.8860662695774,
      "semi_major_axis_km": 6937.230011998909,
      "eccentricity": 0.00011184,
      "inclination_deg": 43.0027,
      "raan_deg": 57.8363,
      "arg_perigee_deg": 268.9801,
      "mean_anomaly_deg": 91.0913,
      "mean_motion_rev_day": 15.02531621
    },
    {
      "epoch": "2026-03-31T21:40:57.347328Z",
      "apogee_km": 559.9042646427515,
      "perigee_km": 558.2809529142969,
      "latitude_deg": -2.156186313391276e-05,
      "longitude_deg": -103.54051075008206,
      "height_km": 558.8895600698573,
      "semi_major_axis_km": 6937.229608778524,
      "eccentricity": 0.000117,
      "inclination_deg": 43.0055,
      "raan_deg": 50.9726,
      "arg_perigee_deg": 268.7749,
      "mean_anomaly_deg": 91.2959,
      "mean_motion_rev_day": 15.02531752
    },
    {
      "epoch": "2026-04-01T13:38:14.059392Z",
      "apogee_km": 559.898927982128,
      "perigee_km": 558.2936521988004,
      "latitude_deg": 1.2960539572877358e-05,
      "longitude_deg": 12.873459423027182,
      "height_km": 558.8946859418281,
      "semi_major_axis_km": 6937.233290090464,
      "eccentricity": 0.0001157,
      "inclination_deg": 43.0056,
      "raan_deg": 47.3614,
      "arg_perigee_deg": 268.6577,
      "mean_anomaly_deg": 91.4133,
      "mean_motion_rev_day": 15.02530556
    },
    {
      "epoch": "2026-04-02T19:57:03.913920Z",
      "apogee_km": 559.8933323102565,
      "perigee_km": 558.247826672402,
      "latitude_deg": -3.091616767705778e-05,
      "longitude_deg": -89.94315897016655,
      "height_km": 558.859487318799,
      "semi_major_axis_km": 6937.207579491329,
      "eccentricity": 0.0001186,
      "inclination_deg": 43.0049,
      "raan_deg": 40.4975,
      "arg_perigee_deg": 269.3481,
      "mean_anomaly_deg": 90.7225,
      "mean_motion_rev_day": 15.02538909
    },
    {
      "epoch": "2026-04-02T19:57:03.914784Z",
      "apogee_km": 559.8929854498783,
      "perigee_km": 558.2481735327801,
      "latitude_deg": 3.376350691014273e-05,
      "longitude_deg": -89.94309361097957,
      "height_km": 558.859475909057,
      "semi_major_axis_km": 6937.207579491329,
      "eccentricity": 0.00011855,
      "inclination_deg": 43.0049,
      "raan_deg": 40.4975,
      "arg_perigee_deg": 269.3481,
      "mean_anomaly_deg": 90.7226,
      "mean_motion_rev_day": 15.02538909
    },
    {
      "epoch": "2026-04-03T13:30:03.926016Z",
      "apogee_km": 560.422529225496,
      "perigee_km": 557.6213044548767,
      "latitude_deg": -2.7843171608385353e-06,
      "longitude_deg": 2.112367675298593,
      "height_km": 558.8426400361124,
      "semi_major_axis_km": 6937.158916840186,
      "eccentricity": 0.0002019,
      "inclination_deg": 43.0013,
      "raan_deg": 36.5238,
      "arg_perigee_deg": 268.3259,
      "mean_anomaly_deg": 91.7352,
      "mean_motion_rev_day": 15.02554719
    },
    {
      "epoch": "2026-04-04T19:48:54.825120Z",
      "apogee_km": 559.8066845034873,
      "perigee_km": 558.34293281186,
      "latitude_deg": 4.250877506698382e-05,
      "longitude_deg": -100.7070218817553,
      "height_km": 558.7629758050616,
      "semi_major_axis_km": 6937.211808657673,
      "eccentricity": 0.0001055,
      "inclination_deg": 43.0051,
      "raan_deg": 29.6614,
      "arg_perigee_deg": 277.1652,
      "mean_anomaly_deg": 82.9071,
      "mean_motion_rev_day": 15.02537535
    },
    {
      "epoch": "2026-04-05T11:46:11.040384Z",
      "apogee_km": 559.8121484902185,
      "perigee_km": 558.278476224602,
      "latitude_deg": 2.4278122256217926e-05,
      "longitude_deg": 15.707365828383587,
      "height_km": 558.7291426593499,
      "semi_major_axis_km": 6937.1823123574095,
      "eccentricity": 0.00011054,
      "inclination_deg": 43.0047,
      "raan_deg": 26.0486,
      "arg_perigee_deg": 277.1635,
      "mean_anomaly_deg": 82.9082,
      "mean_motion_rev_day": 15.02547118
    },
    {
      "epoch": "2026-04-05T19:44:49.913952Z",
      "apogee_km": 559.8589835794219,
      "perigee_km": 558.331405050234,
      "latitude_deg": 4.907202890108329e-05,
      "longitude_deg": -106.08780436947937,
      "height_km": 558.7725449751526,
      "semi_major_axis_km": 6937.232194314828,
      "eccentricity": 0.0001101,
      "inclination_deg": 43.0046,
      "raan_deg": 24.243,
      "arg_perigee_deg": 277.6812,
      "mean_anomaly_deg": 82.3906,
      "mean_motion_rev_day": 15.02530912
    },
    {
      "epoch": "2026-04-06T05:19:11.964000Z",
      "apogee_km": 559.8473458137087,
      "perigee_km": 558.3061744047636,
      "latitude_deg": -2.2193919995670574e-06,
      "longitude_deg": 107.75992428502555,
      "height_km": 558.7602059200577,
      "semi_major_axis_km": 6937.213760109236,
      "eccentricity": 0.00011108,
      "inclination_deg": 43.005,
      "raan_deg": 22.0758,
      "arg_perigee_deg": 277.1604,
      "mean_anomaly_deg": 82.9112,
      "mean_motion_rev_day": 15.02536901
    }
  ]
}